{
  "type": "FeatureCollection",
  "features": [
    {
      "type": "Feature",
      "properties": {
        "norad_id": 52912,
        "name": "GAOFEN-12 03",
        "group": "resource",
        "lat": -40.95701106381782,
        "lon": -109.30037247590386,
        "alt_km": 637.0863844558962,
        "timestamp": "2025-12-22T16:55:17.108009+00:00",
        "meta_object_name": "GAOFEN-12 03",
        "meta_object_id": "2022-069A",
        "meta_epoch": "2025-12-22T05:44:49.780320",
        "meta_mean_motion": 14.79628489,
        "meta_eccentricity": 0.00019096,
        "meta_inclination": 97.8486,
        "meta_ra_of_asc_node": 243.3685,
        "meta_arg_of_pericenter": 50.6766,
        "meta_mean_anomaly": 309.4615,
        "meta_ephemeris_type": 0,
        "meta_classification_type": "U",
        "meta_norad_cat_id": 52912,
        "meta_element_set_no": 999,
        "meta_rev_at_epoch": 18844,
        "meta_bstar": 0.00010803907,
        "meta_mean_motion_dot": 7.59e-06,
        "meta_mean_motion_ddot": 0,
        "tle_line1": "1 52912U 22069A   25356.23946505  .00000759  00000+0  10804-3 0  9999",
        "tle_line2": "2 52912  97.8486 243.3685 0001909  50.6766 309.4615 14.79628489188444"
      },
      "geometry": {
        "type": "Point",
        "coordinates": [
          -109.30037247590386,
          -40.95701106381782
        ]
      }
    },
    {
      "type": "Feature",
      "properties": {
        "norad_id": 54754,
        "name": "SWOT",
        "group": "resource",
        "lat": -27.320157719836104,
        "lon": -92.98155466113504,
        "alt_km": 898.858816546669,
        "timestamp": "2025-12-22T16:55:17.108020+00:00",
        "meta_object_name": "SWOT",
        "meta_object_id": "2022-173A",
        "meta_epoch": "2025-12-22T05:03:02.333952",
        "meta_mean_motion": 14.00168192,
        "meta_eccentricity": 3.709e-05,
        "meta_inclination": 77.611,
        "meta_ra_of_asc_node": 274.2056,
        "meta_arg_of_pericenter": 85.4619,
        "meta_mean_anomaly": 274.6575,
        "meta_ephemeris_type": 0,
        "meta_classification_type": "U",
        "meta_norad_cat_id": 54754,
        "meta_element_set_no": 999,
        "meta_rev_at_epoch": 15438,
        "meta_bstar": 1.6520631e-05,
        "meta_mean_motion_dot": 2.2e-07,
        "meta_mean_motion_ddot": 0,
        "tle_line1": "1 54754U 22173A   25356.21044368  .00000022  00000+0  16521-4 0  9991",
        "tle_line2": "2 54754  77.6110 274.2056 0000370  85.4619 274.6575 14.00168192154387"
      },
      "geometry": {
        "type": "Point",
        "coordinates": [
          -92.98155466113504,
          -27.320157719836104
        ]
      }
    },
    {
      "type": "Feature",
      "properties": {
        "norad_id": 57654,
        "name": "GAOFEN-12 04",
        "group": "resource",
        "lat": 47.600005436106805,
        "lon": 101.0723947119902,
        "alt_km": 625.4833307840372,
        "timestamp": "2025-12-22T16:55:17.108030+00:00",
        "meta_object_name": "GAOFEN-12 04",
        "meta_object_id": "2023-123A",
        "meta_epoch": "2025-12-22T06:35:26.992608",
        "meta_mean_motion": 14.79726392,
        "meta_eccentricity": 0.00012138,
        "meta_inclination": 97.9128,
        "meta_ra_of_asc_node": 271.8874,
        "meta_arg_of_pericenter": 78.0159,
        "meta_mean_anomaly": 282.1189,
        "meta_ephemeris_type": 0,
        "meta_classification_type": "U",
        "meta_norad_cat_id": 57654,
        "meta_element_set_no": 999,
        "meta_rev_at_epoch": 12646,
        "meta_bstar": 0.00017634286,
        "meta_mean_motion_dot": 1.274e-05,
        "meta_mean_motion_ddot": 0,
        "tle_line1": "1 57654U 23123A   25356.27461797  .00001274  00000+0  17634-3 0  9999",
        "tle_line2": "2 57654  97.9128 271.8874 0001213  78.0159 282.1189 14.79726392126469"
      },
      "geometry": {
        "type": "Point",
        "coordinates": [
          101.0723947119902,
          47.600005436106805
        ]
      }
    },
    {
      "type": "Feature",
      "properties": {
        "norad_id": 59065,
        "name": "PARS 1",
        "group": "resource",
        "lat": -26.282209307590943,
        "lon": 144.1378672574157,
        "alt_km": 456.21133325703613,
        "timestamp": "2025-12-22T16:55:17.108041+00:00",
        "meta_object_name": "PARS 1",
        "meta_object_id": "2024-039Q",
        "meta_epoch": "2025-12-22T06:40:46.337376",
        "meta_mean_motion": 15.4117824,
        "meta_eccentricity": 0.0011875,
        "meta_inclination": 97.4648,
        "meta_ra_of_asc_node": 327.4145,
        "meta_arg_of_pericenter": 43.2325,
        "meta_mean_anomaly": 316.9851,
        "meta_ephemeris_type": 0,
        "meta_classification_type": "U",
        "meta_norad_cat_id": 59065,
        "meta_element_set_no": 999,
        "meta_rev_at_epoch": 10135,
        "meta_bstar": 0.00031210146,
        "meta_mean_motion_dot": 0.00012895,
        "meta_mean_motion_ddot": 0,
        "tle_line1": "1 59065U 24039Q   25356.27831409  .00012895  00000+0  31210-3 0  9992",
        "tle_line2": "2 59065  97.4648 327.4145 0011875  43.2325 316.9851 15.41178240101358"
      },
      "geometry": {
        "type": "Point",
        "coordinates": [
          144.1378672574157,
          -26.282209307590943
        ]
      }
    },
    {
      "type": "Feature",
      "properties": {
        "norad_id": 59371,
        "name": "RESURS-P 4",
        "group": "resource",
        "lat": 26.940871598868284,
        "lon": -60.881440478311504,
        "alt_km": 467.94177041825697,
        "timestamp": "2025-12-22T16:55:17.108051+00:00",
        "meta_object_name": "RESURS-P 4",
        "meta_object_id": "2024-061A",
        "meta_epoch": "2025-12-22T07:23:54.926304",
        "meta_mean_motion": 15.32157045,
        "meta_eccentricity": 9.282e-05,
        "meta_inclination": 97.2562,
        "meta_ra_of_asc_node": 302.4426,
        "meta_arg_of_pericenter": 68.4704,
        "meta_mean_anomaly": 291.6637,
        "meta_ephemeris_type": 0,
        "meta_classification_type": "U",
        "meta_norad_cat_id": 59371,
        "meta_element_set_no": 999,
        "meta_rev_at_epoch": 9667,
        "meta_bstar": 0.00013439443,
        "meta_mean_motion_dot": 4.096e-05,
        "meta_mean_motion_ddot": 0,
        "tle_line1": "1 59371U 24061A   25356.30827461  .00004096  00000+0  13439-3 0  9991",
        "tle_line2": "2 59371  97.2562 302.4426 0000928  68.4704 291.6637 15.32157045 96672"
      },
      "geometry": {
        "type": "Point",
        "coordinates": [
          -60.881440478311504,
          26.940871598868284
        ]
      }
    },
    {
      "type": "Feature",
      "properties": {
        "norad_id": 59625,
        "name": "LEGION 1",
        "group": "resource",
        "lat": 53.15581141908271,
        "lon": 61.10420394699795,
        "alt_km": 513.2332226406807,
        "timestamp": "2025-12-22T16:55:17.108061+00:00",
        "meta_object_name": "LEGION 1",
        "meta_object_id": "2024-081A",
        "meta_epoch": "2025-12-22T05:36:00.591552",
        "meta_mean_motion": 15.16566882,
        "meta_eccentricity": 0.00036272,
        "meta_inclination": 97.5203,
        "meta_ra_of_asc_node": 70.7911,
        "meta_arg_of_pericenter": 273.5774,
        "meta_mean_anomaly": 86.5045,
        "meta_ephemeris_type": 0,
        "meta_classification_type": "U",
        "meta_norad_cat_id": 59625,
        "meta_element_set_no": 999,
        "meta_rev_at_epoch": 9071,
        "meta_bstar": 0.00027635471,
        "meta_mean_motion_dot": 5.327e-05,
        "meta_mean_motion_ddot": 0,
        "tle_line1": "1 59625U 24081A   25356.23334018  .00005327  00000+0  27635-3 0  9999",
        "tle_line2": "2 59625  97.5203  70.7911 0003627 273.5774  86.5045 15.16566882 90716"
      },
      "geometry": {
        "type": "Point",
        "coordinates": [
          61.10420394699795,
          53.15581141908271
        ]
      }
    },
    {
      "type": "Feature",
      "properties": {
        "norad_id": 59626,
        "name": "LEGION 2",
        "group": "resource",
        "lat": -53.47734971159977,
        "lon": -118.92929703589836,
        "alt_km": 519.4637203873726,
        "timestamp": "2025-12-22T16:55:17.108072+00:00",
        "meta_object_name": "LEGION 2",
        "meta_object_id": "2024-081B",
        "meta_epoch": "2025-12-22T06:23:27.337632",
        "meta_mean_motion": 15.16581201,
        "meta_eccentricity": 0.00056655,
        "meta_inclination": 97.5206,
        "meta_ra_of_asc_node": 70.9116,
        "meta_arg_of_pericenter": 252.2565,
        "meta_mean_anomaly": 107.805,
        "meta_ephemeris_type": 0,
        "meta_classification_type": "U",
        "meta_norad_cat_id": 59626,
        "meta_element_set_no": 999,
        "meta_rev_at_epoch": 9072,
        "meta_bstar": 0.00025369134,
        "meta_mean_motion_dot": 4.888e-05,
        "meta_mean_motion_ddot": 0,
        "tle_line1": "1 59626U 24081B   25356.26628863  .00004888  00000+0  25369-3 0  9990",
        "tle_line2": "2 59626  97.5206  70.9116 0005665 252.2565 107.8050 15.16581201 90721"
      },
      "geometry": {
        "type": "Point",
        "coordinates": [
          -118.92929703589836,
          -53.47734971159977
        ]
      }
    }
  ]
}